[
  {
    "COMMENT": "GENERATED VIA SPACETRACK.ORG API",
    "ORIGINATOR": "18 SPCS",
    "NORAD_CAT_ID": "48621",
    "OBJECT_NAME": "HAIYANG 2D",
    "OBJECT_TYPE": "PAYLOAD",
    "CLASSIFICATION_TYPE": "U",
    "INTLDES": "21043A",
    "EPOCH": "2022-01-14 10:38:51",
    "EPOCH_MICROSECONDS": "704736",
    "MEAN_MOTION": "13.83375964",
    "ECCENTRICITY": "0.0007591",
    "INCLINATION": "65.9982",
    "RA_OF_ASC_NODE": "4.8568",
    "ARG_OF_PERICENTER": "276.7808",
    "MEAN_ANOMALY": "83.2404",
    "EPHEMERIS_TYPE": "0",
    "ELEMENT_SET_NO": "999",
    "REV_AT_EPOCH": "3323",
    "BSTAR": "0.000024881",
    "MEAN_MOTION_DOT": "-0.00000054",
    "MEAN_MOTION_DDOT": "0",
    "FILE": "3272712",
    "TLE_LINE0": "0 HAIYANG 2D",
    "TLE_LINE1": "1 48621U 21043A   22014.44365399 -.00000054  00000-0  24881-4 0  9990",
    "TLE_LINE2": "2 48621  65.9982   4.8568 0007591 276.7808  83.2404 13.83375964 33234",
    "OBJECT_ID": "2021-043A",
    "OBJECT_NUMBER": "48621",
    "SEMIMAJOR_AXIS": "7330.074",
    "PERIOD": "104.093",
    "APOGEE": "957.503",
    "PERIGEE": "946.375",
    "DECAYED": "0"
  },
  {
    "COMMENT": "GENERATED VIA SPACETRACK.ORG API",
    "ORIGINATOR": "18 SPCS",
    "NORAD_CAT_ID": "48621",
    "OBJECT_NAME": "HAIYANG 2D",
    "OBJECT_TYPE": "PAYLOAD",
    "CLASSIFICATION_TYPE": "U",
    "INTLDES": "21043A",
    "EPOCH": "2022-01-14 10:38:51",
    "EPOCH_MICROSECONDS": "704736",
    "MEAN_MOTION": "13.83375964",
    "ECCENTRICITY": "0.0007591",
    "INCLINATION": "65.9982",
    "RA_OF_ASC_NODE": "4.8568",
    "ARG_OF_PERICENTER": "276.7808",
    "MEAN_ANOMALY": "83.2404",
    "EPHEMERIS_TYPE": "0",
    "ELEMENT_SET_NO": "999",
    "REV_AT_EPOCH": "3323",
    "BSTAR": "0.000024881",
    "MEAN_MOTION_DOT": "-0.00000054",
    "MEAN_MOTION_DDOT": "0",
    "FILE": "3272874",
    "TLE_LINE0": "0 HAIYANG 2D",
    "TLE_LINE1": "1 48621U 21043A   22014.44365399 -.00000054  00000-0  24881-4 0  9990",
    "TLE_LINE2": "2 48621  65.9982   4.8568 0007591 276.7808  83.2404 13.83375964 33234",
    "OBJECT_ID": "2021-043A",
    "OBJECT_NUMBER": "48621",
    "SEMIMAJOR_AXIS": "7330.074",
    "PERIOD": "104.093",
    "APOGEE": "957.503",
    "PERIGEE": "946.375",
    "DECAYED": "0"
  },
  {
    "COMMENT": "GENERATED VIA SPACETRACK.ORG API",
    "ORIGINATOR": "18 SPCS",
    "NORAD_CAT_ID": "48621",
    "OBJECT_NAME": "HAIYANG 2D",
    "OBJECT_TYPE": "PAYLOAD",
    "CLASSIFICATION_TYPE": "U",
    "INTLDES": "21043A",
    "EPOCH": "2022-01-14 19:19:22",
    "EPOCH_MICROSECONDS": "987488",
    "MEAN_MOTION": "13.8337598",
    "ECCENTRICITY": "0.0007598",
    "INCLINATION": "65.9982",
    "RA_OF_ASC_NODE": "3.9571",
    "ARG_OF_PERICENTER": "276.6659",
    "MEAN_ANOMALY": "83.3544",
    "EPHEMERIS_TYPE": "0",
    "ELEMENT_SET_NO": "999",
    "REV_AT_EPOCH": "3328",
    "BSTAR": "0.000024663",
    "MEAN_MOTION_DOT": "-0.00000054",
    "MEAN_MOTION_DDOT": "0",
    "FILE": "3273095",
    "TLE_LINE0": "0 HAIYANG 2D",
    "TLE_LINE1": "1 48621U 21043A   22014.80512717 -.00000054  00000-0  24663-4 0  9996",
    "TLE_LINE2": "2 48621  65.9982   3.9571 0007598 276.6659  83.3544 13.83375980 33287",
    "OBJECT_ID": "2021-043A",
    "OBJECT_NUMBER": "48621",
    "SEMIMAJOR_AXIS": "7330.074",
    "PERIOD": "104.093",
    "APOGEE": "957.508",
    "PERIGEE": "946.370",
    "DECAYED": "0"
  },
  {
    "COMMENT": "GENERATED VIA SPACETRACK.ORG API",
    "ORIGINATOR": "18 SPCS",
    "NORAD_CAT_ID": "48621",
    "OBJECT_NAME": "HAIYANG 2D",
    "OBJECT_TYPE": "PAYLOAD",
    "CLASSIFICATION_TYPE": "U",
    "INTLDES": "21043A",
    "EPOCH": "2022-01-14 19:19:22",
    "EPOCH_MICROSECONDS": "987488",
    "MEAN_MOTION": "13.8337598",
    "ECCENTRICITY": "0.0007598",
    "INCLINATION": "65.9982",
    "RA_OF_ASC_NODE": "3.9571",
    "ARG_OF_PERICENTER": "276.6659",
    "MEAN_ANOMALY": "83.3544",
    "EPHEMERIS_TYPE": "0",
    "ELEMENT_SET_NO": "999",
    "REV_AT_EPOCH": "3328",
    "BSTAR": "0.000024663",
    "MEAN_MOTION_DOT": "-0.00000054",
    "MEAN_MOTION_DDOT": "0",
    "FILE": "3273247",
    "TLE_LINE0": "0 HAIYANG 2D",
    "TLE_LINE1": "1 48621U 21043A   22014.80512717 -.00000054  00000-0  24663-4 0  9996",
    "TLE_LINE2": "2 48621  65.9982   3.9571 0007598 276.6659  83.3544 13.83375980 33287",
    "OBJECT_ID": "2021-043A",
    "OBJECT_NUMBER": "48621",
    "SEMIMAJOR_AXIS": "7330.074",
    "PERIOD": "104.093",
    "APOGEE": "957.508",
    "PERIGEE": "946.370",
    "DECAYED": "0"
  },
  {
    "COMMENT": "GENERATED VIA SPACETRACK.ORG API",
    "ORIGINATOR": "18 SPCS",
    "NORAD_CAT_ID": "48621",
    "OBJECT_NAME": "HAIYANG 2D",
    "OBJECT_TYPE": "PAYLOAD",
    "CLASSIFICATION_TYPE": "U",
    "INTLDES": "21043A",
    "EPOCH": "2022-01-15 02:15:48",
    "EPOCH_MICROSECONDS": "40992",
    "MEAN_MOTION": "13.83375551",
    "ECCENTRICITY": "0.0007638",
    "INCLINATION": "65.9985",
    "RA_OF_ASC_NODE": "3.236",
    "ARG_OF_PERICENTER": "277.516",
    "MEAN_ANOMALY": "82.5001",
    "EPHEMERIS_TYPE": "0",
    "ELEMENT_SET_NO": "999",
    "REV_AT_EPOCH": "3332",
    "BSTAR": "-0.0000075261",
    "MEAN_MOTION_DOT": "-0.0000009",
    "MEAN_MOTION_DDOT": "0",
    "FILE": "3273426",
    "TLE_LINE0": "0 HAIYANG 2D",
    "TLE_LINE1": "1 48621U 21043A   22015.09430603 -.00000090  00000-0 -75261-5 0  9993",
    "TLE_LINE2": "2 48621  65.9985   3.2360 0007638 277.5160  82.5001 13.83375551 33329",
    "OBJECT_ID": "2021-043A",
    "OBJECT_NUMBER": "48621",
    "SEMIMAJOR_AXIS": "7330.075",
    "PERIOD": "104.093",
    "APOGEE": "957.539",
    "PERIGEE": "946.342",
    "DECAYED": "0"
  },
  {
    "COMMENT": "GENERATED VIA SPACETRACK.ORG API",
    "ORIGINATOR": "18 SPCS",
    "NORAD_CAT_ID": "48621",
    "OBJECT_NAME": "HAIYANG 2D",
    "OBJECT_TYPE": "PAYLOAD",
    "CLASSIFICATION_TYPE": "U",
    "INTLDES": "21043A",
    "EPOCH": "2022-01-15 10:56:19",
    "EPOCH_MICROSECONDS": "430016",
    "MEAN_MOTION": "13.83375367",
    "ECCENTRICITY": "0.000765",
    "INCLINATION": "65.9985",
    "RA_OF_ASC_NODE": "2.3359",
    "ARG_OF_PERICENTER": "277.6005",
    "MEAN_ANOMALY": "82.4179",
    "EPHEMERIS_TYPE": "0",
    "ELEMENT_SET_NO": "999",
    "REV_AT_EPOCH": "3337",
    "BSTAR": "-0.000017396",
    "MEAN_MOTION_DOT": "-0.000001",
    "MEAN_MOTION_DDOT": "0",
    "FILE": "3273699",
    "TLE_LINE0": "0 HAIYANG 2D",
    "TLE_LINE1": "1 48621U 21043A   22015.45578044 -.00000100  00000-0 -17396-4 0  9991",
    "TLE_LINE2": "2 48621  65.9985   2.3359 0007650 277.6005  82.4179 13.83375367 33375",
    "OBJECT_ID": "2021-043A",
    "OBJECT_NUMBER": "48621",
    "SEMIMAJOR_AXIS": "7330.076",
    "PERIOD": "104.093",
    "APOGEE": "957.549",
    "PERIGEE": "946.334",
    "DECAYED": "0"
  },
  {
    "COMMENT": "GENERATED VIA SPACETRACK.ORG API",
    "ORIGINATOR": "18 SPCS",
    "NORAD_CAT_ID": "48621",
    "OBJECT_NAME": "HAIYANG 2D",
    "OBJECT_TYPE": "PAYLOAD",
    "CLASSIFICATION_TYPE": "U",
    "INTLDES": "21043A",
    "EPOCH": "2022-01-15 10:56:19",
    "EPOCH_MICROSECONDS": "430016",
    "MEAN_MOTION": "13.83375367",
    "ECCENTRICITY": "0.000765",
    "INCLINATION": "65.9985",
    "RA_OF_ASC_NODE": "2.3359",
    "ARG_OF_PERICENTER": "277.6005",
    "MEAN_ANOMALY": "82.4179",
    "EPHEMERIS_TYPE": "0",
    "ELEMENT_SET_NO": "999",
    "REV_AT_EPOCH": "3337",
    "BSTAR": "-0.000017396",
    "MEAN_MOTION_DOT": "-0.000001",
    "MEAN_MOTION_DDOT": "0",
    "FILE": "3273762",
    "TLE_LINE0": "0 HAIYANG 2D",
    "TLE_LINE1": "1 48621U 21043A   22015.45578044 -.00000100  00000-0 -17396-4 0  9991",
    "TLE_LINE2": "2 48621  65.9985   2.3359 0007650 277.6005  82.4179 13.83375367 33375",
    "OBJECT_ID": "2021-043A",
    "OBJECT_NUMBER": "48621",
    "SEMIMAJOR_AXIS": "7330.076",
    "PERIOD": "104.093",
    "APOGEE": "957.549",
    "PERIGEE": "946.334",
    "DECAYED": "0"
  },
  {
    "COMMENT": "GENERATED VIA SPACETRACK.ORG API",
    "ORIGINATOR": "18 SPCS",
    "NORAD_CAT_ID": "48621",
    "OBJECT_NAME": "HAIYANG 2D",
    "OBJECT_TYPE": "PAYLOAD",
    "CLASSIFICATION_TYPE": "U",
    "INTLDES": "21043A",
    "EPOCH": "2022-01-15 17:52:44",
    "EPOCH_MICROSECONDS": "514624",
    "MEAN_MOTION": "13.83375251",
    "ECCENTRICITY": "0.0007651",
    "INCLINATION": "65.9985",
    "RA_OF_ASC_NODE": "1.6162",
    "ARG_OF_PERICENTER": "277.4285",
    "MEAN_ANOMALY": "82.591",
    "EPHEMERIS_TYPE": "0",
    "ELEMENT_SET_NO": "999",
    "REV_AT_EPOCH": "3341",
    "BSTAR": "-0.00002446",
    "MEAN_MOTION_DOT": "-0.00000108",
    "MEAN_MOTION_DDOT": "0",
    "FILE": "3273981",
    "TLE_LINE0": "0 HAIYANG 2D",
    "TLE_LINE1": "1 48621U 21043A   22015.74495966 -.00000108  00000-0 -24460-4 0  9992",
    "TLE_LINE2": "2 48621  65.9985   1.6162 0007651 277.4285  82.5910 13.83375251 33419",
    "OBJECT_ID": "2021-043A",
    "OBJECT_NUMBER": "48621",
    "SEMIMAJOR_AXIS": "7330.076",
    "PERIOD": "104.093",
    "APOGEE": "957.550",
    "PERIGEE": "946.333",
    "DECAYED": "0"
  },
  {
    "COMMENT": "GENERATED VIA SPACETRACK.ORG API",
    "ORIGINATOR": "18 SPCS",
    "NORAD_CAT_ID": "48621",
    "OBJECT_NAME": "HAIYANG 2D",
    "OBJECT_TYPE": "PAYLOAD",
    "CLASSIFICATION_TYPE": "U",
    "INTLDES": "21043A",
    "EPOCH": "2022-01-15 17:52:44",
    "EPOCH_MICROSECONDS": "514624",
    "MEAN_MOTION": "13.83375251",
    "ECCENTRICITY": "0.0007651",
    "INCLINATION": "65.9985",
    "RA_OF_ASC_NODE": "1.6162",
    "ARG_OF_PERICENTER": "277.4285",
    "MEAN_ANOMALY": "82.591",
    "EPHEMERIS_TYPE": "0",
    "ELEMENT_SET_NO": "999",
    "REV_AT_EPOCH": "3341",
    "BSTAR": "-0.00002446",
    "MEAN_MOTION_DOT": "-0.00000108",
    "MEAN_MOTION_DDOT": "0",
    "FILE": "3274074",
    "TLE_LINE0": "0 HAIYANG 2D",
    "TLE_LINE1": "1 48621U 21043A   22015.74495966 -.00000108  00000-0 -24460-4 0  9992",
    "TLE_LINE2": "2 48621  65.9985   1.6162 0007651 277.4285  82.5910 13.83375251 33419",
    "OBJECT_ID": "2021-043A",
    "OBJECT_NUMBER": "48621",
    "SEMIMAJOR_AXIS": "7330.076",
    "PERIOD": "104.093",
    "APOGEE": "957.550",
    "PERIGEE": "946.333",
    "DECAYED": "0"
  }
]